{"type": "FeatureCollection", "features": [ {"type": "Feature", "properties": {"norad_id": 34432, "name": "COSMOS 2251 DEB", "group": "cosmos-2251-debris", "lat": 64.6495784958954, "lon": -129.61543630760178, "alt_km": 808.7248338853278, "timestamp": "2025-12-20T18:51:32.107519+00:00", "meta": {"OBJECT_NAME": "COSMOS 2251 DEB", "OBJECT_ID": "1993-036RZ", "EPOCH": "2025-12-19T06:32:24.354240", "MEAN_MOTION": 14.02934229, "ECCENTRICITY": 0.0181953, "INCLINATION": 73.8292, "RA_OF_ASC_NODE": 90.8154, "ARG_OF_PERICENTER": 172.489, "MEAN_ANOMALY": 219.0361, "EPHEMERIS_TYPE": 0, "CLASSIFICATION_TYPE": "U", "NORAD_CAT_ID": 34432, "ELEMENT_SET_NO": 999, "REV_AT_EPOCH": 85776, "BSTAR": 0.00076949, "MEAN_MOTION_DOT": 1.356e-05, "MEAN_MOTION_DDOT": 0}, "tle": {"line1": "1 34432U 93036RZ  25353.27250410  .00001356  00000+0  76949-3 0  9998", "line2": "2 34432  73.8292  90.8154 0181953 172.4890 219.0361 14.02934229857765"}}, "geometry": {"type": "Point", "coordinates": [-129.61543630760178, 64.6495784958954]}}, {"type": "Feature", "properties": {"norad_id": 34433, "name": "COSMOS 2251 DEB", "group": "cosmos-2251-debris", "lat": 59.94010217023743, "lon": 170.38802362433847, "alt_km": 935.610076767075, "timestamp": "2025-12-20T18:51:32.107529+00:00", "meta": {"OBJECT_NAME": "COSMOS 2251 DEB", "OBJECT_ID": "1993-036SA", "EPOCH": "2025-12-20T11:45:18.796896", "MEAN_MOTION": 14.12883423, "ECCENTRICITY": 0.01526889, "INCLINATION": 74.01, "RA_OF_ASC_NODE": 141.2128, "ARG_OF_PERICENTER": 277.6551, "MEAN_ANOMALY": 80.7272, "EPHEMERIS_TYPE": 0, "CLASSIFICATION_TYPE": "U", "NORAD_CAT_ID": 34433, "ELEMENT_SET_NO": 999, "REV_AT_EPOCH": 86059, "BSTAR": 0.00075721807, "MEAN_MOTION_DOT": 1.548e-05, "MEAN_MOTION_DDOT": 0}, "tle": {"line1": "1 34433U 93036SA  25354.48980089  .00001548  00000+0  75722-3 0  9996", "line2": "2 34433  74.0100 141.2128 0152688 277.6551  80.7272 14.12883423860593"}}, "geometry": {"type": "Point", "coordinates": [170.38802362433847, 59.94010217023743]}}, {"type": "Feature", "properties": {"norad_id": 34434, "name": "COSMOS 2251 DEB", "group": "cosmos-2251-debris", "lat": 4.263369915529988, "lon": -2.338909417326773, "alt_km": 1048.883481216496, "timestamp": "2025-12-20T18:51:32.107539+00:00", "meta": {"OBJECT_NAME": "COSMOS 2251 DEB", "OBJECT_ID": "1993-036SB", "EPOCH": "2025-12-20T10:54:17.828928", "MEAN_MOTION": 13.89851479, "ECCENTRICITY": 0.02739281, "INCLINATION": 74.0622, "RA_OF_ASC_NODE": 357.004, "ARG_OF_PERICENTER": 132.4716, "MEAN_ANOMALY": 17.0174, "EPHEMERIS_TYPE": 0, "CLASSIFICATION_TYPE": "U", "NORAD_CAT_ID": 34434, "ELEMENT_SET_NO": 999, "REV_AT_EPOCH": 84073, "BSTAR": 0.0013268666, "MEAN_MOTION_DOT": 2.186e-05, "MEAN_MOTION_DDOT": 0}, "tle": {"line1": "1 34434U 93036SB  25354.45437302  .00002186  00000+0  13269-2 0  9995", "line2": "2 34434  74.0622 357.0040 0273928 132.4716  17.0174 13.89851479840732"}}, "geometry": {"type": "Point", "coordinates": [-2.338909417326773, 4.263369915529988]}}, {"type": "Feature", "properties": {"norad_id": 34446, "name": "COSMOS 2251 DEB", "group": "cosmos-2251-debris", "lat": 60.0467832861861, "lon": -167.57922434438245, "alt_km": 704.8548877690382, "timestamp": "2025-12-20T18:51:32.107549+00:00", "meta": {"OBJECT_NAME": "COSMOS 2251 DEB", "OBJECT_ID": "1993-036SP", "EPOCH": "2025-12-20T13:21:19.051200", "MEAN_MOTION": 14.49360911, "ECCENTRICITY": 0.00507702, "INCLINATION": 74.0417, "RA_OF_ASC_NODE": 42.6229, "ARG_OF_PERICENTER": 178.8046, "MEAN_ANOMALY": 181.3246, "EPHEMERIS_TYPE": 0, "CLASSIFICATION_TYPE": "U", "NORAD_CAT_ID": 34446, "ELEMENT_SET_NO": 999, "REV_AT_EPOCH": 88807, "BSTAR": 8.7219438e-05, "MEAN_MOTION_DOT": 3.1e-06, "MEAN_MOTION_DDOT": 0}, "tle": {"line1": "1 34446U 93036SP  25354.55647050  .00000310  00000+0  87219-4 0  9997", "line2": "2 34446  74.0417  42.6229 0050770 178.8046 181.3246 14.49360911888078"}}, "geometry": {"type": "Point", "coordinates": [-167.57922434438245, 60.0467832861861]}}, {"type": "Feature", "properties": {"norad_id": 34449, "name": "COSMOS 2251 DEB", "group": "cosmos-2251-debris", "lat": 31.019923979359284, "lon": -135.58672956276774, "alt_km": 570.4281449640102, "timestamp": "2025-12-20T18:51:32.107559+00:00", "meta": {"OBJECT_NAME": "COSMOS 2251 DEB", "OBJECT_ID": "1993-036SS", "EPOCH": "2025-12-19T05:31:05.790432", "MEAN_MOTION": 14.95222496, "ECCENTRICITY": 0.0022749, "INCLINATION": 74.0328, "RA_OF_ASC_NODE": 57.4655, "ARG_OF_PERICENTER": 95.9476, "MEAN_ANOMALY": 319.8524, "EPHEMERIS_TYPE": 0, "CLASSIFICATION_TYPE": "U", "NORAD_CAT_ID": 34449, "ELEMENT_SET_NO": 999, "REV_AT_EPOCH": 88790, "BSTAR": 0.0015083, "MEAN_MOTION_DOT": 0.00016676, "MEAN_MOTION_DDOT": 0}, "tle": {"line1": "1 34449U 93036SS  25353.22992813  .00016676  00000+0  15083-2 0  9993", "line2": "2 34449  74.0328  57.4655 0022749  95.9476 319.8524 14.95222496887904"}}, "geometry": {"type": "Point", "coordinates": [-135.58672956276774, 31.019923979359284]}}, {"type": "Feature", "properties": {"norad_id": 34451, "name": "COSMOS 2251 DEB", "group": "cosmos-2251-debris", "lat": 39.23452311482818, "lon": -121.87536248794333, "alt_km": 565.7489967655274, "timestamp": "2025-12-20T18:51:32.107569+00:00", "meta": {"OBJECT_NAME": "COSMOS 2251 DEB", "OBJECT_ID": "1993-036SU", "EPOCH": "2025-12-20T07:00:28.949472", "MEAN_MOTION": 14.95971176, "ECCENTRICITY": 0.00239102, "INCLINATION": 74.0466, "RA_OF_ASC_NODE": 72.6295, "ARG_OF_PERICENTER": 87.8107, "MEAN_ANOMALY": 272.5815, "EPHEMERIS_TYPE": 0, "CLASSIFICATION_TYPE": "U", "NORAD_CAT_ID": 34451, "ELEMENT_SET_NO": 999, "REV_AT_EPOCH": 88748, "BSTAR": 0.0016184696, "MEAN_MOTION_DOT": 0.00018258, "MEAN_MOTION_DDOT": 0}, "tle": {"line1": "1 34451U 93036SU  25354.29200173  .00018258  00000+0  16185-2 0  9997", "line2": "2 34451  74.0466  72.6295 0023910  87.8107 272.5815 14.95971176887488"}}, "geometry": {"type": "Point", "coordinates": [-121.87536248794333, 39.23452311482818]}}, {"type": "Feature", "properties": {"norad_id": 34452, "name": "COSMOS 2251 DEB", "group": "cosmos-2251-debris", "lat": -27.282641472291935, "lon": 157.67253449846172, "alt_km": 536.4120896875602, "timestamp": "2025-12-20T18:51:32.107579+00:00", "meta": {"OBJECT_NAME": "COSMOS 2251 DEB", "OBJECT_ID": "1993-036SV", "EPOCH": "2025-12-20T06:31:05.195424", "MEAN_MOTION": 15.11864875, "ECCENTRICITY": 0.00650578, "INCLINATION": 74.0321, "RA_OF_ASC_NODE": 167.2293, "ARG_OF_PERICENTER": 241.8685, "MEAN_ANOMALY": 171.5699, "EPHEMERIS_TYPE": 0, "CLASSIFICATION_TYPE": "U", "NORAD_CAT_ID": 34452, "ELEMENT_SET_NO": 999, "REV_AT_EPOCH": 90776, "BSTAR": 0.00055901221, "MEAN_MOTION_DOT": 0.00010033, "MEAN_MOTION_DDOT": 0}, "tle": {"line1": "1 34452U 93036SV  25354.27158791  .00010033  00000+0  55901-3 0  9997", "line2": "2 34452  74.0321 167.2293 0065057 241.8685 171.5699 15.11864875907767"}}, "geometry": {"type": "Point", "coordinates": [157.67253449846172, -27.282641472291935]}}, {"type": "Feature", "properties": {"norad_id": 34454, "name": "COSMOS 2251 DEB", "group": "cosmos-2251-debris", "lat": 50.778891256226665, "lon": -76.6810256774371, "alt_km": 757.2963121594357, "timestamp": "2025-12-20T18:51:32.107589+00:00", "meta": {"OBJECT_NAME": "COSMOS 2251 DEB", "OBJECT_ID": "1993-036SX", "EPOCH": "2025-12-20T00:15:19.334016", "MEAN_MOTION": 14.38819508, "ECCENTRICITY": 0.00358286, "INCLINATION": 74.0587, "RA_OF_ASC_NODE": 264.2471, "ARG_OF_PERICENTER": 325.3277, "MEAN_ANOMALY": 34.5542, "EPHEMERIS_TYPE": 0, "CLASSIFICATION_TYPE": "U", "NORAD_CAT_ID": 34454, "ELEMENT_SET_NO": 999, "REV_AT_EPOCH": 88172, "BSTAR": 0.00017190343, "MEAN_MOTION_DOT": 5.06e-06, "MEAN_MOTION_DDOT": 0}, "tle": {"line1": "1 34454U 93036SX  25354.01064044  .00000506  00000+0  17190-3 0  9990", "line2": "2 34454  74.0587 264.2471 0035828 325.3277  34.5542 14.38819508881720"}}, "geometry": {"type": "Point", "coordinates": [-76.6810256774371, 50.778891256226665]}}, {"type": "Feature", "properties": {"norad_id": 34459, "name": "COSMOS 2251 DEB", "group": "cosmos-2251-debris", "lat": 23.912028022247114, "lon": -112.58656583904919, "alt_km": 856.9224220659571, "timestamp": "2025-12-20T18:51:32.107599+00:00", "meta": {"OBJECT_NAME": "COSMOS 2251 DEB", "OBJECT_ID": "1993-036TC", "EPOCH": "2025-12-20T03:18:48.386592", "MEAN_MOTION": 14.00510773, "ECCENTRICITY": 0.01921123, "INCLINATION": 74.0787, "RA_OF_ASC_NODE": 241.2617, "ARG_OF_PERICENTER": 309.3825, "MEAN_ANOMALY": 49.0427, "EPHEMERIS_TYPE": 0, "CLASSIFICATION_TYPE": "U", "NORAD_CAT_ID": 34459, "ELEMENT_SET_NO": 999, "REV_AT_EPOCH": 85815, "BSTAR": 0.00028419524, "MEAN_MOTION_DOT": 4.7e-06, "MEAN_MOTION_DDOT": 0}, "tle": {"line1": "1 34459U 93036TC  25354.13806003  .00000470  00000+0  28420-3 0  9995", "line2": "2 34459  74.0787 241.2617 0192112 309.3825  49.0427 14.00510773858150"}}, "geometry": {"type": "Point", "coordinates": [-112.58656583904919, 23.912028022247114]}}, {"type": "Feature", "properties": {"norad_id": 34464, "name": "COSMOS 2251 DEB", "group": "cosmos-2251-debris", "lat": -57.62783660697362, "lon": -91.9063698606964, "alt_km": 478.13301319967195, "timestamp": "2025-12-20T18:51:32.107609+00:00", "meta": {"OBJECT_NAME": "COSMOS 2251 DEB", "OBJECT_ID": "1993-036TH", "EPOCH": "2025-12-20T05:14:05.338176", "MEAN_MOTION": 15.28056873, "ECCENTRICITY": 0.0014672, "INCLINATION": 73.99, "RA_OF_ASC_NODE": 62.3687, "ARG_OF_PERICENTER": 244.6918, "MEAN_ANOMALY": 115.2764, "EPHEMERIS_TYPE": 0, "CLASSIFICATION_TYPE": "U", "NORAD_CAT_ID": 34464, "ELEMENT_SET_NO": 999, "REV_AT_EPOCH": 89954, "BSTAR": 0.001940104, "MEAN_MOTION_DOT": 0.00053613, "MEAN_MOTION_DDOT": 0}, "tle": {"line1": "1 34464U 93036TH  25354.21811734  .00053613  00000+0  19401-2 0  9992", "line2": "2 34464  73.9900  62.3687 0014672 244.6918 115.2764 15.28056873899543"}}, "geometry": {"type": "Point", "coordinates": [-91.9063698606964, -57.62783660697362]}}]}